format  = 'OEF2.0'       ! file format
rectype = 'ML'           ! record type (1L/ML)
refsys  = ECLM J2000     ! default reference system
END_OF_HEADER
2009BD
! Equinoctial elements: a, e*sin(LP), e*cos(LP), tan(i/2)*sin(LN), tan(i/2)*cos(LN), mean long.
 EQU   1.0072104819555516E+00   0.006322346045843  -0.040167165556698    0.002870278390076    0.001754940916545  42.4208474507229
 MJD     55137.563158689 TDT
 MAG  28.236  0.150
! Non-grav parameters: model used, actual number in use, dimension, list of solve for parameters to be currently determined
 LSP   1  2    8    1  2
! Vector of dynamical parameters
 NGR   2.41973078068337E-01 -1.15437612499379E-02
! RMS    4.25968E-08   2.73116E-08   1.95707E-08   4.33284E-09   1.75079E-09   2.57091E-06   4.15754E-02   1.36685E-03
! EIG   1.76843E-10   7.35807E-10   9.02815E-10   2.83667E-09   3.89633E-09   1.80731E-08   9.88447E-04   4.15861E-02
! WEA   0.00000   0.00000   0.00000  -0.00000   0.00000   0.00000  -0.99974  -0.02271
 COV   1.814483914977512E-15  1.036198351470753E-15  6.022398480768825E-16
 COV  -4.205437584842872E-17  1.758509633476642E-17 -7.723307927211400E-15
 COV  -1.704609691828465E-09 -2.830141661446743E-11  7.459214510997711E-16
 COV   4.749178126111204E-16 -5.083394563698834E-17  1.649453702567477E-17
 COV   2.489518282174670E-14 -1.100323002006709E-09 -3.051398473739198E-11
 COV   3.830125229848020E-16 -1.701264839037186E-17  1.275549985159135E-17
 COV   3.053326954111990E-14 -7.134576260113135E-10 -2.289428319576650E-11
 COV   1.877352815891065E-17 -4.969591721830148E-18 -2.184930005109991E-15
 COV   4.988802587327295E-11  2.678846260492529E-12  3.065267007092700E-18
 COV   1.063963537137247E-15 -2.208171056050437E-11 -8.894643141338112E-13
 COV   6.609582437095639E-12 -2.151128976479687E-08 -2.808694337706154E-09
 COV   1.728514923679972E-03  3.923848597802649E-05  1.868273031518894E-06
 NOR   1.918285110878589E+18  1.078927003016270E+18  3.384865349607243E+18
 NOR  -4.123462294927976E+17 -2.420848479687003E+18 -1.038234987455116E+16
 NOR   4.191751335469425E+12 -1.604736292409336E+13  2.870884114688590E+18
 NOR   6.843190771025000E+18  1.766733715695026E+17 -4.359411712432757E+18
 NOR  -3.616531488674862E+16  6.026541509762267E+12 -3.617954995759359E+13
 NOR   1.818271504681958E+19 -4.173104392200151E+17 -1.260726352114386E+19
 NOR  -9.319174493914758E+16  1.611975780586471E+13 -9.820196707186642E+13
 NOR   5.910943429988938E+17  9.576586012108306E+17 -1.590651982403602E+14
 NOR  -5.094007039388334E+11  1.593290619015443E+12  9.981117483918092E+18
 NOR   6.364275041148667E+16 -1.102209882706904E+13  6.818339893500958E+13
 NOR   5.175597166532431E+14 -7.629630757689914E+10  5.210755681282513E+11
 NOR   1.547105140033326E+07 -8.468580258761431E+07  5.553011758592566E+08
!MOID  0.00396    0
!NODES  0.03364 -0.01989
